STARLINK-3388           
1 51131U 22005AD  24356.79123267  .00001509  00000+0  11287-3 0  9993
2 51131  53.2173 127.3650 0001317  89.1779 270.9364 15.08852003161866
STARLINK-3393           
1 51132U 22005AE  24356.59620917  .00000068  00000+0  22364-4 0  9994
2 51132  53.2173 128.2410 0001244  90.8426 269.2709 15.08838209161831
STARLINK-3356           
1 51133U 22005AF  24356.65140641 -.00000013  00000+0  17275-4 0  9999
2 51133  53.2174 127.9945 0001191  94.4007 265.7121 15.08842807161847
STARLINK-3183           
1 51134U 22005AG  24356.75264049  .00000295  00000+0  36627-4 0  9993
2 51134  53.2176 117.5385 0001470  98.8852 261.2307 15.08846397162014
STARLINK-3363           
1 51135U 22005AH  24356.77011265  .00003654  00000+0  24751-3 0  9992
2 51135  53.2167 127.3574 0001378  86.1088 274.0062 15.08848114161863
STARLINK-3253           
1 51136U 22005AJ  24356.69554477  .00004643  00000+0  30946-3 0  9993
2 51136  53.2179 127.5933 0001261  88.7128 271.4009 15.08858858161859
STARLINK-3180           
1 51137U 22005AK  24356.63668404  .00001057  00000+0  84453-4 0  9993
2 51137  53.2182 128.0614 0001537  93.5387 266.5781 15.08845272161851
STARLINK-3177           
1 51138U 22005AL  24356.64403988  .00000815  00000+0  69274-4 0  9994
2 51138  53.2174 128.0280 0001328  89.9338 270.1806 15.08846079161849
STARLINK-3172           
1 51139U 22005AM  24356.69654723 -.00001640  00000+0 -84981-4 0  9996
2 51139  53.2179 127.8031 0001260  97.0381 263.0754 15.08825488161865
STARLINK-3175           
1 51140U 22005AN  24356.77379825  .00000762  00000+0  65928-4 0  9996
2 51140  53.2169 127.4551 0001287  87.9313 272.1827 15.08845467161873
STARLINK-3179           
1 51141U 22005AP  24356.75444545  .00000740  00000+0  64569-4 0  9993
2 51141  53.2160 127.5326 0001224  90.5884 269.5249 15.08844988161875
STARLINK-3369           
1 51142U 22005AQ  24356.62289272 -.00000243  00000+0  28397-5 0  9993
2 51142  53.2175 118.1895 0001531 104.7449 255.3713 15.08843497161980
STARLINK-3184           
1 51143U 22005AR  24356.80504510  .00000709  00000+0  62623-4 0  9994
2 51143  53.2170 137.3040 0001350  95.3211 264.7936 15.08844955161736
STARLINK-3185           
1 51144U 22005AS  24356.75907787  .00002291  00000+0  16194-3 0  9991
2 51144  53.2179 127.5222 0001401  88.6900 271.4252 15.08848146161873
STARLINK-3365           
1 51145U 22005AT  24356.73817224  .00801343  35362-3  93470-3 0  9996
2 51145  53.2102 121.2247 0001600 354.0494   6.0522 16.08223484161951
STARLINK-3354           
1 51146U 22005AU  24356.70019752  .00001631  00000+0  12051-3 0  9999
2 51146  53.2181 127.7866 0001394  86.7466 273.3685 15.08846557161854
STARLINK-3352           
1 51147U 22005AV  24356.80231626  .00000439  00000+0  45692-4 0  9990
2 51147  53.2178 137.2505 0001311  91.8697 268.2445 15.08840910161730
STARLINK-3359           
1 51148U 22005AW  24356.81706750  .00000192  00000+0  30147-4 0  9992
2 51148  53.2168 137.4509 0001371  91.3290 268.7859 15.08839198161736
STARLINK-3360           
1 51149U 22005AX  24356.71030479 -.00000002  00000+0  17945-4 0  9992
2 51149  53.2177 137.5483 0001287  89.6956 270.4183 15.08837526161726
STARLINK-3357           
1 51150U 22005AY  24356.78015601  .00000115  00000+0  25311-4 0  9991
2 51150  53.2168 127.0306 0001390  98.6910 261.4240 15.08849676161881
STARLINK-3361           
1 51151U 22005AZ  24356.79221738  .00056168  00000+0  22656-2 0  9999
2 51151  53.2117 127.6889 0002439 170.9258 189.1785 15.24293914161877
STARLINK-3364           
1 51152U 22005BA  24356.62099678  .00000094  00000+0  23972-4 0  9999
2 51152  53.2175 137.7426 0001419  86.7682 273.3473 15.08841167161717
STARLINK-3167           
1 51460U 22010E   24356.76534204  .01780291  11880-4  73517-3 0  9998
2 51460  53.2065  85.9857 0004170 353.2579 152.3496 16.22500686160695
STARLINK-3181           
1 51461U 22010F   24356.62380976  .00001739  00000+0  12736-3 0  9994
2 51461  53.2180 108.1175 0001322  94.0384 266.0759 15.08828965159931
STARLINK-3166           
1 51462U 22010G   24356.75356132  .00000933  00000+0  76714-4 0  9998
2 51462  53.2173 107.5440 0001270  84.7582 275.3555 15.08843262159956
STARLINK-3419           
1 51463U 22010H   24356.59436860  .00000331  00000+0  38881-4 0  9993
2 51463  53.2174 108.2520 0001336  93.5544 266.5601 15.08839066159629
STARLINK-3189           
1 51464U 22010J   24356.74524542 -.00004664  00000+0 -27520-3 0  9998
2 51464  53.2167 107.5713 0001401  96.8155 263.2997 15.08827777160456
STARLINK-3401           
1 51465U 22010K   24356.60908739  .00000172  00000+0  28890-4 0  9998
2 51465  53.2177 108.1835 0001340  89.6735 270.4411 15.08838549160434
STARLINK-3178           
1 51467U 22010M   24356.72315730  .00001550  00000+0  11542-3 0  9992
2 51467  53.2171 107.6733 0001319  90.4761 269.6382 15.08848628159643
STARLINK-3174           
1 51468U 22010N   24356.73052060  .00002228  00000+0  15801-3 0  9993
2 51468  53.2156 107.6005 0001531  97.6734 262.4432 15.08846002159645
STARLINK-3182           
1 51469U 22010P   24356.55021223 -.00000010  00000+0  17481-4 0  9996
2 51469  53.2176 108.4463 0001170  93.0393 267.0733 15.08835317159928
STARLINK-3415           
1 51472U 22010S   24356.72411112  .00001355  00000+0  10317-3 0  9991
2 51472  53.2165 107.6022 0001319  79.6305 280.4835 15.08850479159951
STARLINK-3528           
1 51714U 22016A   24356.73055867  .00000170  00000+0  28800-4 0  9999
2 51714  53.2165 157.6153 0001370  91.4217 268.6932 15.08842929156551
STARLINK-3533           
1 51715U 22016B   24356.85571149  .00002031  00000+0  14565-3 0  9999
2 51715  53.2185 157.0813 0001747 105.8534 254.2651 15.08838561157705
STARLINK-3543           
1 51716U 22016C   24356.86208668 -.00000434  00000+0 -91915-5 0  9997
2 51716  53.2172 157.0458 0001472  95.5614 264.5546 15.08842818156577
STARLINK-3445           
1 51717U 22016D   24356.73425855 -.00000031  00000+0  16139-4 0  9999
2 51717  53.2170 157.7077 0001373  91.0507 269.0642 15.08836409156556
STARLINK-3546           
1 51718U 22016E   24356.77744829  .00001167  00000+0  91394-4 0  9995
2 51718  53.2171 157.4288 0001475  87.5380 272.5781 15.08844796157687
STARLINK-3540           
1 51719U 22016F   24356.72593173  .00000517  00000+0  50584-4 0  9999
2 51719  53.2174 157.7360 0001536  95.8790 264.2377 15.08846056156555
STARLINK-3526           
1 51720U 22016G   24356.83728309  .00000302  00000+0  37043-4 0  9991
2 51720  53.2167 157.1316 0001288  87.3667 272.7472 15.08839775156568
STARLINK-3524           
1 51721U 22016H   24356.84832741 -.00000020  00000+0  16846-4 0  9995
2 51721  53.2175 157.1182 0001524  84.9068 275.2099 15.08837181156573
STARLINK-3535           
1 51722U 22016J   24356.83265005  .00000542  00000+0  52136-4 0  9998
2 51722  53.2169 157.1830 0001214  96.1588 263.9543 15.08840367156562
STARLINK-3529           
1 51724U 22016L   24356.69280897  .00000430  00000+0  45086-4 0  9992
2 51724  53.2162 157.8098 0001235  90.9003 269.2131 15.08838508156541
STARLINK-3522           
1 51725U 22016M   24356.77008976  .00000542  00000+0  52164-4 0  9997
2 51725  53.2165 157.4635 0001350  92.3894 267.7253 15.08840406156559
STARLINK-3527           
1 51726U 22016N   24356.80045634 -.00000229  00000+0  37253-5 0  9990
2 51726  53.2160 147.3264 0001174  86.5279 273.5848 15.08834275156706
STARLINK-3532           
1 51727U 22016P   24356.82896922  .00000691  00000+0  61468-4 0  9993
2 51727  53.2156 157.1980 0001250  93.9013 266.2122 15.08840892156569
STARLINK-3448           
1 51728U 22016Q   24357.25001157  .00639629  00000+0  34529-1 0  9994
2 51728  53.2154 145.0180 0001131 107.1779   7.0097 15.12001844157914
STARLINK-3523           
1 51729U 22016R   24356.80412974  .00000679  00000+0  60762-4 0  9996
2 51729  53.2168 147.3106 0001263  86.2957 273.8180 15.08842039156700
STARLINK-3530           
1 51730U 22016S   24356.76823378  .00923456  50777-3  90062-3 0  9999
2 51730  53.2050 130.1109 0003589 327.3478  32.7336 16.10981026156940
STARLINK-3514           
1 51731U 22016T   24356.86300920  .00000160  00000+0  28170-4 0  9994
2 51731  53.2167 147.0451 0001266  85.5089 274.6048 15.08839700156717
STARLINK-3518           
1 51732U 22016U   24356.71580495  .00000309  00000+0  37532-4 0  9993
2 51732  53.2178 147.7032 0001462  92.9200 267.1960 15.08840607157839
STARLINK-3525           
1 51733U 22016V   24356.85660777  .00001597  00000+0  11846-3 0  9990
2 51733  53.2179 147.0870 0001149  78.7268 281.3854 15.08829516156714
STARLINK-3450           
1 51734U 22016W   24356.77100617  .00000715  00000+0  62976-4 0  9996
2 51734  53.2165 147.4536 0001349  95.6985 264.4161 15.08842562156695
STARLINK-3517           
1 51735U 22016X   24356.84460500  .00003212  00000+0  21976-3 0  9994
2 51735  53.2176 147.1254 0001115  87.3766 272.7354 15.08847806157826
STARLINK-3447           
1 51736U 22016Y   24356.70573391  .00000474  00000+0  47839-4 0  9997
2 51736  53.2175 147.8356 0001312  94.2868 265.8274 15.08842109156683
STARLINK-3509           
1 51737U 22016Z   24356.84090723  .00002813  00000+0  19467-3 0  9990
2 51737  53.2179 147.1404 0001425 115.6153 244.4986 15.08860967156703
STARLINK-3515           
1 51738U 22016AA  24356.69004427  .00001111  00000+0  87868-4 0  9991
2 51738  53.2181 147.8214 0001447  92.5309 267.5849 15.08843380156684
STARLINK-3516           
1 51739U 22016AB  24356.70109027  .00000032  00000+0  20068-4 0  9996
2 51739  53.2174 147.7693 0001297  93.1513 266.9628 15.08839633156688
STARLINK-3500           
1 51740U 22016AC  24356.81514501  .00009927  00000+0  64031-3 0  9996
2 51740  53.2150 147.2552 0001346 121.1057 239.0067 15.08876462156705
STARLINK-3520           
1 51741U 22016AD  24356.69467953  .00001020  00000+0  82132-4 0  9990
2 51741  53.2176 147.8091 0001309  91.2883 268.8260 15.08846625156681
